NORAD_CAT_ID,OBJECT_NAME,OBJECT_TYPE,EPOCH,MEAN_MOTION,ECCENTRICITY,INCLINATION,RA_OF_ASC_NODE,ARG_OF_PERICENTER,MEAN_ANOMALY,BSTAR,MEAN_MOTION_DOT,MEAN_MOTION_DDOT,TLE_LINE0,TLE_LINE1,TLE_LINE2,SEMIMAJOR_AXIS,PERIOD,APOGEE,PERIGEE,DECAYED
53415.0,STARLINK-4479,PAYLOAD,2024-01-17 07:54:49,15.08853729,0.0001456,53.2174,26.2666,101.4576,258.6579,6.0259e-05,6.72e-06,0.0,0 STARLINK-4479,1 53415U 22097AD  24017.32973594  .00000672  00000-0  60259-4 0  9995,2 53415  53.2174  26.2666 0001456 101.4576 258.6579 15.08853729 80053,6917.838,95.437,540.711,538.696,0.0
53415.0,STARLINK-4479,PAYLOAD,2024-01-18 04:34:50,15.08837274,0.0001501,53.2169,22.4072,74.5581,285.5577,4.6442e-05,4.51e-06,0.0,0 STARLINK-4479,1 53415U 22097AD  24018.19086668  .00000451  00000-0  46442-4 0  9991,2 53415  53.2169  22.4072 0001501  74.5581 285.5577 15.08837274 80181,6917.889,95.438,540.792,538.715,0.0
53415.0,STARLINK-4479,PAYLOAD,2024-01-18 09:20:59,15.08841902,0.0001565,53.2177,21.51,103.0242,257.0925,0.00015922,2.247e-05,0.0,0 STARLINK-4479,1 53415U 22097AD  24018.38958232  .00002247  00000-0  15922-3 0  9990,2 53415  53.2177  21.5100 0001565 103.0242 257.0925 15.08841902 80672,6917.875,95.437,540.822,538.657,0.0
53415.0,STARLINK-4479,PAYLOAD,2024-01-19 09:11:46,15.08853294,0.0001707,53.2184,17.0507,109.5793,250.5383,0.00014145,1.965e-05,0.0,0 STARLINK-4479,1 53415U 22097AD  24019.38317624  .00001965  00000-0  14145-3 0  9997,2 53415  53.2184  17.0507 0001707 109.5793 250.5383 15.08853294 80360,6917.84,95.437,540.886,538.524,0.0
53415.0,STARLINK-4479,PAYLOAD,2024-01-19 23:30:15,15.08836891,0.0001557,53.2181,14.3707,115.3366,244.7787,7.7144e-05,9.4e-06,0.0,0 STARLINK-4479,1 53415U 22097AD  24019.97934578  .00000940  00000-0  77144-4 0  9996,2 53415  53.2181  14.3707 0001557 115.3366 244.7787 15.08836891 80450,6917.89,95.438,540.832,538.678,0.0
53415.0,STARLINK-4479,PAYLOAD,2024-01-20 05:51:47,15.08840226,0.0001954,53.2184,13.1845,126.755,233.3622,0.00010263,1.346e-05,0.0,0 STARLINK-4479,1 53415U 22097AD  24020.24430329  .00001346  00000-0  10263-3 0  9992,2 53415  53.2184  13.1845 0001954 126.7550 233.3622 15.08840226 80959,6917.88,95.438,541.096,538.393,0.0
53415.0,STARLINK-4479,PAYLOAD,2024-01-20 23:21:02,15.08841437,0.0001865,53.2197,9.9164,78.2575,281.8626,6.2709e-06,-1.88e-06,0.0,0 STARLINK-4479,1 53415U 22097AD  24020.97294952 -.00000188  00000-0  62709-5 0  9990,2 53415  53.2197   9.9164 0001865  78.2575 281.8626 15.08841437 81069,6917.876,95.437,541.031,538.451,0.0
53415.0,STARLINK-4479,PAYLOAD,2024-01-21 04:07:12,15.08843851,0.0001678,53.2193,9.0225,94.9334,265.185,-1.1139e-05,-4.65e-06,0.0,0 STARLINK-4479,1 53415U 22097AD  24021.17166680 -.00000465  00000-0 -11139-4 0  9998,2 53415  53.2193   9.0225 0001678  94.9334 265.1850 15.08843851 80632,6917.869,95.437,540.894,538.573,0.0
53415.0,STARLINK-4479,PAYLOAD,2024-01-21 05:42:35,15.08843843,0.0001782,53.2198,8.7267,90.0529,270.0668,1.3537e-05,-7.3e-07,0.0,0 STARLINK-4479,1 53415U 22097AD  24021.23790704 -.00000073  00000-0  13537-4 0  9993,2 53415  53.2198   8.7267 0001782  90.0529 270.0668 15.08843843 81104,6917.869,95.437,540.966,538.501,0.0
53415.0,STARLINK-4479,PAYLOAD,2024-01-21 23:11:49,15.08839061,0.000176,53.2198,5.4562,101.4906,258.6284,9.7452e-05,1.263e-05,0.0,0 STARLINK-4479,1 53415U 22097AD  24021.96654651  .00001263  00000-0  97452-4 0  9992,2 53415  53.2198   5.4562 0001760 101.4906 258.6284 15.08839061 81213,6917.883,95.438,540.966,538.531,0.0
53415.0,STARLINK-4479,PAYLOAD,2024-01-22 05:33:23,15.08793985,0.000181,53.2179,4.2644,93.6616,266.4583,0.00092099,0.00014382,0.0,0 STARLINK-4479,1 53415U 22097AD  24022.23152044  .00014382  00000-0  92099-3 0  9999,2 53415  53.2179   4.2644 0001810  93.6616 266.4583 15.08793985 80791,6918.021,95.44,541.138,538.634,0.0
53415.0,STARLINK-4479,PAYLOAD,2024-01-23 03:48:46,15.08834839,0.0001382,53.2183,0.1,89.8829,270.2321,2.0424e-05,3.7e-07,0.0,0 STARLINK-4479,1 53415U 22097AD  24023.15887296  .00000037  00000-0  20424-4 0  9991,2 53415  53.2183   0.1000 0001382  89.8829 270.2321 15.08834839 80937,6917.896,95.438,540.717,538.805,0.0
53415.0,STARLINK-4479,PAYLOAD,2024-01-24 03:39:33,15.08851103,0.0001559,53.2203,355.6445,110.1308,249.9852,-9.0123e-05,-1.722e-05,0.0,0 STARLINK-4479,1 53415U 22097AD  24024.15246619 -.00001722  00000-0 -90123-4 0  9997,2 53415  53.2203 355.6445 0001559 110.1308 249.9852 15.08851103 81089,6917.846,95.437,540.79,538.633,0.0
53415.0,STARLINK-4479,PAYLOAD,2024-01-25 03:30:20,15.08834257,0.000152,53.2197,351.1816,107.3718,252.7441,0.00017633,2.519e-05,0.0,0 STARLINK-4479,1 53415U 22097AD  24025.14607161  .00002519  00000-0  17633-3 0  9997,2 53415  53.2197 351.1816 0001520 107.3718 252.7441 15.08834257 81239,6917.898,95.438,540.814,538.711,0.0
53415.0,STARLINK-4479,PAYLOAD,2024-01-25 05:05:43,15.08822699,0.000148,53.2194,350.8824,88.582,271.5342,0.0004171,6.353e-05,0.0,0 STARLINK-4479,1 53415U 22097AD  24025.21231427  .00006353  00000-0  41710-3 0  9996,2 53415  53.2194 350.8824 0001480  88.5820 271.5342 15.08822699 81247,6917.933,95.439,540.822,538.774,0.0
53415.0,STARLINK-4479,PAYLOAD,2024-01-26 04:56:30,15.08855529,0.0001893,53.2209,346.4225,108.5483,251.5715,-0.00013879,-2.497e-05,0.0,0 STARLINK-4479,1 53415U 22097AD  24026.20590830 -.00002497  00000-0 -13879-3 0  9994,2 53415  53.2209 346.4225 0001893 108.5483 251.5715 15.08855529 81392,6917.833,95.437,541.007,538.388,0.0
53415.0,STARLINK-4479,PAYLOAD,2024-01-27 03:11:56,15.08805631,0.00021,53.221,342.2587,52.3723,307.746,0.00041132,6.258e-05,0.0,0 STARLINK-4479,1 53415U 22097AD  24027.13329093  .00006258  00000-0  41132-3 0  9998,2 53415  53.2210 342.2587 0002100  52.3723 307.7460 15.08805631 81530,6917.985,95.44,541.303,538.398,0.0
53415.0,STARLINK-4479,PAYLOAD,2024-01-28 03:02:41,15.08851215,0.000158,53.219,337.8036,82.1218,277.9953,0.00013329,1.835e-05,0.0,0 STARLINK-4479,1 53415U 22097AD  24028.12687008  .00001835  00000-0  13329-3 0  9994,2 53415  53.2190 337.8036 0001580  82.1218 277.9953 15.08851215 81687,6917.846,95.437,540.804,538.618,0.0
53415.0,STARLINK-4479,PAYLOAD,2024-01-28 06:13:27,15.08853976,0.0001613,53.2195,337.2007,88.4439,271.6738,0.00013764,1.904e-05,0.0,0 STARLINK-4479,1 53415U 22097AD  24028.25934718  .00001904  00000-0  13764-3 0  9991,2 53415  53.2195 337.2007 0001613  88.4439 271.6738 15.08853976 82167,6917.838,95.437,540.819,538.587,0.0
53415.0,STARLINK-4479,PAYLOAD,2024-01-28 20:31:56,15.0883898,0.0001648,53.2199,334.5169,123.8182,236.2967,3.1021e-05,2.06e-06,0.0,0 STARLINK-4479,1 53415U 22097AD  24028.85551848  .00000206  00000-0  31021-4 0  9997,2 53415  53.2199 334.5169 0001648 123.8182 236.2967 15.08838980 82256,6917.884,95.438,540.889,538.608,0.0
53415.0,STARLINK-4479,PAYLOAD,2024-01-29 02:53:29,15.08842838,0.0001606,53.2194,333.3407,98.5444,261.573,6.6118e-05,7.64e-06,0.0,0 STARLINK-4479,1 53415U 22097AD  24029.12047824  .00000764  00000-0  66118-4 0  9996,2 53415  53.2194 333.3407 0001606  98.5444 261.5730 15.08842838 81835,6917.872,95.437,540.848,538.626,0.0
53415.0,STARLINK-4479,PAYLOAD,2024-01-29 20:22:43,15.08846933,0.0001571,53.2183,330.0662,115.1422,244.9733,-5.5241e-05,-1.167e-05,0.0,0 STARLINK-4479,1 53415U 22097AD  24029.84911326 -.00001167  00000-0 -55241-4 0  9997,2 53415  53.2183 330.0662 0001571 115.1422 244.9733 15.08846933 82405,6917.859,95.437,540.811,538.637,0.0
53415.0,STARLINK-4479,PAYLOAD,2024-01-30 02:44:15,15.08849404,0.0001544,53.2188,328.8776,107.2771,252.839,3.4412e-05,2.6e-06,0.0,0 STARLINK-4479,1 53415U 22097AD  24030.11407150  .00000260  00000-0  34412-4 0  9992,2 53415  53.2188 328.8776 0001544 107.2771 252.8390 15.08849404 82447,6917.852,95.437,540.785,538.649,0.0
53415.0,STARLINK-4479,PAYLOAD,2024-01-30 20:13:30,15.08841934,0.0001601,53.2196,325.6064,77.4303,282.6868,4.2983e-05,3.96e-06,0.0,0 STARLINK-4479,1 53415U 22097AD  24030.84271687  .00000396  00000-0  42983-4 0  9998,2 53415  53.2196 325.6064 0001601  77.4303 282.6868 15.08841934 82096,6917.874,95.437,540.847,538.632,0.0
53415.0,STARLINK-4479,PAYLOAD,2024-01-31 02:35:03,15.08839788,0.0001432,53.2196,324.4178,94.7624,265.3531,5.7563e-05,6.28e-06,0.0,0 STARLINK-4479,1 53415U 22097AD  24031.10767862  .00000628  00000-0  57563-4 0  9991,2 53415  53.2196 324.4178 0001432  94.7624 265.3531 15.08839788 82593,6917.881,95.438,540.737,538.755,0.0
53415.0,STARLINK-4479,PAYLOAD,2024-02-01 02:25:51,15.08836933,0.0001535,53.2194,319.9587,91.6444,268.4724,2.8611e-05,1.67e-06,0.0,0 STARLINK-4479,1 53415U 22097AD  24032.10128488  .00000167  00000-0  28611-4 0  9997,2 53415  53.2194 319.9587 0001535  91.6444 268.4724 15.08836933 82287,6917.89,95.438,540.817,538.693,0.0
53415.0,STARLINK-4479,PAYLOAD,2024-02-02 02:16:35,15.08863478,0.0001589,53.2196,315.498,89.9209,270.1965,0.0002525,3.735e-05,0.0,0 STARLINK-4479,1 53415U 22097AD  24033.09485367  .00003735  00000-0  25250-3 0  9997,2 53415  53.2196 315.4980 0001589  89.9209 270.1965 15.08863478 82433,6917.809,95.436,540.773,538.574,0.0
53415.0,STARLINK-4479,PAYLOAD,2024-02-03 02:07:25,15.08825622,0.0001516,53.2183,311.0392,86.8965,273.2201,-8.3919e-05,-1.623e-05,0.0,0 STARLINK-4479,1 53415U 22097AD  24034.08849300 -.00001623  00000-0 -83919-4 0  9991,2 53415  53.2183 311.0392 0001516  86.8965 273.2201 15.08825622 82585,6917.924,95.438,540.838,538.741,0.0
53415.0,STARLINK-4479,PAYLOAD,2024-02-03 18:01:16,15.08845899,0.0001569,53.2182,308.063,84.5095,275.6076,-0.00023722,-4.062e-05,0.0,0 STARLINK-4479,1 53415U 22097AD  24034.75088584 -.00004062  00000-0 -23722-3 0  9999,2 53415  53.2182 308.0630 0001569  84.5095 275.6076 15.08845899 82687,6917.862,95.437,540.813,538.642,0.0
53415.0,STARLINK-4479,PAYLOAD,2024-02-04 03:33:33,15.08857132,0.0001709,53.2189,306.2792,96.627,263.4917,-5.2425e-05,-1.123e-05,0.0,0 STARLINK-4479,1 53415U 22097AD  24035.14830730 -.00001123  00000-0 -52425-4 0  9999,2 53415  53.2189 306.2792 0001709  96.6270 263.4917 15.08857132 82747,6917.828,95.436,540.875,538.511,0.0
